[{"OBJECT_NAME":"MEASAT-3B","OBJECT_ID":"2014-054B","EPOCH":"2026-03-03T12:31:04.507680","MEAN_MOTION":1.00268239,"ECCENTRICITY":0.00036269,"INCLINATION":0.0402,"RA_OF_ASC_NODE":37.2951,"ARG_OF_PERICENTER":343.2968,"MEAN_ANOMALY":59.952,"EPHEMERIS_TYPE":0,"CLASSIFICATION_TYPE":"U","NORAD_CAT_ID":40147,"ELEMENT_SET_NO":999,"REV_AT_EPOCH":4184,"BSTAR":0,"MEAN_MOTION_DOT":-2.55e-6,"MEAN_MOTION_DDOT":0},{"OBJECT_NAME":"HIMAWARI-8","OBJECT_ID":"2014-060A","EPOCH":"2026-03-03T18:09:59.756832","MEAN_MOTION":1.0027204,"ECCENTRICITY":7.92e-5,"INCLINATION":0.0349,"RA_OF_ASC_NODE":253.5628,"ARG_OF_PERICENTER":70.7847,"MEAN_ANOMALY":250.3122,"EPHEMERIS_TYPE":0,"CLASSIFICATION_TYPE":"U","NORAD_CAT_ID":40267,"ELEMENT_SET_NO":999,"REV_AT_EPOCH":4170,"BSTAR":0,"MEAN_MOTION_DOT":-2.9e-6,"MEAN_MOTION_DDOT":0},{"OBJECT_NAME":"IRNSS-1C","OBJECT_ID":"2014-061A","EPOCH":"2026-03-03T15:53:06.159840","MEAN_MOTION":1.00269944,"ECCENTRICITY":0.0019809,"INCLINATION":6.2467,"RA_OF_ASC_NODE":90.9894,"ARG_OF_PERICENTER":356.5662,"MEAN_ANOMALY":35.1298,"EPHEMERIS_TYPE":0,"CLASSIFICATION_TYPE":"U","NORAD_CAT_ID":40269,"ELEMENT_SET_NO":999,"REV_AT_EPOCH":4163,"BSTAR":0,"MEAN_MOTION_DOT":-1.72e-6,"MEAN_MOTION_DDOT":0},{"OBJECT_NAME":"INTELSAT 30 (IS-30)","OBJECT_ID":"2014-062A","EPOCH":"2026-03-03T13:37:25.878432","MEAN_MOTION":1.00271059,"ECCENTRICITY":0.0001162,"INCLINATION":0.0137,"RA_OF_ASC_NODE":82.8937,"ARG_OF_PERICENTER":26.6195,"MEAN_ANOMALY":161.1234,"EPHEMERIS_TYPE":0,"CLASSIFICATION_TYPE":"U","NORAD_CAT_ID":40271,"ELEMENT_SET_NO":999,"REV_AT_EPOCH":573,"BSTAR":0,"MEAN_MOTION_DOT":-1.65e-6,"MEAN_MOTION_DDOT":0},{"OBJECT_NAME":"ARSAT 1","OBJECT_ID":"2014-062B","EPOCH":"2026-03-03T18:52:10.714368","MEAN_MOTION":1.00267804,"ECCENTRICITY":0.0001488,"INCLINATION":0.0205,"RA_OF_ASC_NODE":117.3856,"ARG_OF_PERICENTER":221.9276,"MEAN_ANOMALY":33.4836,"EPHEMERIS_TYPE":0,"CLASSIFICATION_TYPE":"U","NORAD_CAT_ID":40272,"ELEMENT_SET_NO":999,"REV_AT_EPOCH":4156,"BSTAR":0,"MEAN_MOTION_DOT":0,"MEAN_MOTION_DDOT":0},{"OBJECT_NAME":"EUTELSAT 53A","OBJECT_ID":"2014-064A","EPOCH":"2026-03-03T04:03:32.572800","MEAN_MOTION":1.0027252,"ECCENTRICITY":0.00013549,"INCLINATION":0.0202,"RA_OF_ASC_NODE":239.3678,"ARG_OF_PERICENTER":138.1994,"MEAN_ANOMALY":257.2357,"EPHEMERIS_TYPE":0,"CLASSIFICATION_TYPE":"U","NORAD_CAT_ID":40277,"ELEMENT_SET_NO":999,"REV_AT_EPOCH":4050,"BSTAR":0,"MEAN_MOTION_DOT":8.2e-7,"MEAN_MOTION_DDOT":0},{"OBJECT_NAME":"GSAT-16","OBJECT_ID":"2014-078A","EPOCH":"2026-03-03T18:20:38.944032","MEAN_MOTION":1.00272551,"ECCENTRICITY":0.0004569,"INCLINATION":0.0372,"RA_OF_ASC_NODE":268.0173,"ARG_OF_PERICENTER":167.9622,"MEAN_ANOMALY":55.778,"EPHEMERIS_TYPE":0,"CLASSIFICATION_TYPE":"U","NORAD_CAT_ID":40332,"ELEMENT_SET_NO":999,"REV_AT_EPOCH":4105,"BSTAR":0,"MEAN_MOTION_DOT":7.1e-7,"MEAN_MOTION_DDOT":0},{"OBJECT_NAME":"DIRECTV 14","OBJECT_ID":"2014-078B","EPOCH":"2026-03-03T13:36:10.997280","MEAN_MOTION":1.00272482,"ECCENTRICITY":4.29e-5,"INCLINATION":0.021,"RA_OF_ASC_NODE":118.638,"ARG_OF_PERICENTER":40.9367,"MEAN_ANOMALY":106.5486,"EPHEMERIS_TYPE":0,"CLASSIFICATION_TYPE":"U","NORAD_CAT_ID":40333,"ELEMENT_SET_NO":999,"REV_AT_EPOCH":4098,"BSTAR":0,"MEAN_MOTION_DOT":-1.4e-6,"MEAN_MOTION_DDOT":0},{"OBJECT_NAME":"YAMAL 401","OBJECT_ID":"2014-082A","EPOCH":"2026-03-03T09:22:09.537888","MEAN_MOTION":1.00269603,"ECCENTRICITY":2.842e-5,"INCLINATION":0.0085,"RA_OF_ASC_NODE":137.799,"ARG_OF_PERICENTER":29.1062,"MEAN_ANOMALY":224.694,"EPHEMERIS_TYPE":0,"CLASSIFICATION_TYPE":"U","NORAD_CAT_ID":40345,"ELEMENT_SET_NO":999,"REV_AT_EPOCH":4085,"BSTAR":0,"MEAN_MOTION_DOT":-2.42e-6,"MEAN_MOTION_DDOT":0},{"OBJECT_NAME":"ASTRA 2G","OBJECT_ID":"2014-089A","EPOCH":"2026-03-03T19:20:37.987008","MEAN_MOTION":1.00270425,"ECCENTRICITY":0.0004368,"INCLINATION":0.0224,"RA_OF_ASC_NODE":7.0985,"ARG_OF_PERICENTER":20.7958,"MEAN_ANOMALY":92.0204,"EPHEMERIS_TYPE":0,"CLASSIFICATION_TYPE":"U","NORAD_CAT_ID":40364,"ELEMENT_SET_NO":999,"REV_AT_EPOCH":4091,"BSTAR":0,"MEAN_MOTION_DOT":0,"MEAN_MOTION_DDOT":0},{"OBJECT_NAME":"FENGYUN 2G","OBJECT_ID":"2014-090A","EPOCH":"2026-03-03T14:31:09.655104","MEAN_MOTION":1.00274754,"ECCENTRICITY":0.0001966,"INCLINATION":5.3719,"RA_OF_ASC_NODE":74.0954,"ARG_OF_PERICENTER":153.5378,"MEAN_ANOMALY":251.1881,"EPHEMERIS_TYPE":0,"CLASSIFICATION_TYPE":"U","NORAD_CAT_ID":40367,"ELEMENT_SET_NO":999,"REV_AT_EPOCH":4094,"BSTAR":0,"MEAN_MOTION_DOT":-3.14e-6,"MEAN_MOTION_DDOT":0},{"OBJECT_NAME":"MUOS-3","OBJECT_ID":"2015-002A","EPOCH":"2026-03-03T19:08:09.184128","MEAN_MOTION":1.00273232,"ECCENTRICITY":0.0053296,"INCLINATION":4.3179,"RA_OF_ASC_NODE":42.9778,"ARG_OF_PERICENTER":183.9708,"MEAN_ANOMALY":206.1461,"EPHEMERIS_TYPE":0,"CLASSIFICATION_TYPE":"U","NORAD_CAT_ID":40374,"ELEMENT_SET_NO":999,"REV_AT_EPOCH":4053,"BSTAR":0,"MEAN_MOTION_DOT":-1.4e-6,"MEAN_MOTION_DDOT":0},{"OBJECT_NAME":"INMARSAT 5-F2","OBJECT_ID":"2015-005A","EPOCH":"2026-03-03T12:06:11.527776","MEAN_MOTION":1.00270452,"ECCENTRICITY":5.97e-5,"INCLINATION":0.021,"RA_OF_ASC_NODE":127.4668,"ARG_OF_PERICENTER":116.6237,"MEAN_ANOMALY":43.672,"EPHEMERIS_TYPE":0,"CLASSIFICATION_TYPE":"U","NORAD_CAT_ID":40384,"ELEMENT_SET_NO":999,"REV_AT_EPOCH":3993,"BSTAR":0,"MEAN_MOTION_DOT":-3.0e-6,"MEAN_MOTION_DDOT":0},{"OBJECT_NAME":"ABS-3A","OBJECT_ID":"2015-010A","EPOCH":"2026-03-03T14:03:30.877920","MEAN_MOTION":1.00271189,"ECCENTRICITY":0.0001742,"INCLINATION":0.0123,"RA_OF_ASC_NODE":145.6825,"ARG_OF_PERICENTER":140.4202,"MEAN_ANOMALY":83.1451,"EPHEMERIS_TYPE":0,"CLASSIFICATION_TYPE":"U","NORAD_CAT_ID":40424,"ELEMENT_SET_NO":999,"REV_AT_EPOCH":4031,"BSTAR":0,"MEAN_MOTION_DOT":-4.1e-7,"MEAN_MOTION_DDOT":0},{"OBJECT_NAME":"EUTELSAT 115 WEST B","OBJECT_ID":"2015-010B","EPOCH":"2026-03-03T10:30:38.783232","MEAN_MOTION":1.0027122,"ECCENTRICITY":2.436e-5,"INCLINATION":0.0337,"RA_OF_ASC_NODE":21.0877,"ARG_OF_PERICENTER":73.0999,"MEAN_ANOMALY":109.7578,"EPHEMERIS_TYPE":0,"CLASSIFICATION_TYPE":"U","NORAD_CAT_ID":40425,"ELEMENT_SET_NO":999,"REV_AT_EPOCH":4033,"BSTAR":0,"MEAN_MOTION_DOT":-4.0e-7,"MEAN_MOTION_DDOT":0},{"OBJECT_NAME":"EXPRESS-AM7","OBJECT_ID":"2015-012A","EPOCH":"2026-03-03T19:24:00.163008","MEAN_MOTION":1.0027521,"ECCENTRICITY":0.0003009,"INCLINATION":0.0162,"RA_OF_ASC_NODE":223.3146,"ARG_OF_PERICENTER":106.5788,"MEAN_ANOMALY":162.6687,"EPHEMERIS_TYPE":0,"CLASSIFICATION_TYPE":"U","NORAD_CAT_ID":40505,"ELEMENT_SET_NO":999,"REV_AT_EPOCH":3995,"BSTAR":0,"MEAN_MOTION_DOT":1.37e-6,"MEAN_MOTION_DDOT":0},{"OBJECT_NAME":"BEIDOU-3S IGSO-1S","OBJECT_ID":"2015-019A","EPOCH":"2026-03-03T14:29:03.557760","MEAN_MOTION":1.00273864,"ECCENTRICITY":0.0035838,"INCLINATION":49.3919,"RA_OF_ASC_NODE":296.7335,"ARG_OF_PERICENTER":190.4162,"MEAN_ANOMALY":347.9683,"EPHEMERIS_TYPE":0,"CLASSIFICATION_TYPE":"U","NORAD_CAT_ID":40549,"ELEMENT_SET_NO":999,"REV_AT_EPOCH":4001,"BSTAR":0,"MEAN_MOTION_DOT":-1.61e-6,"MEAN_MOTION_DDOT":0}]
