MEASAT-3B               
1 40147U 14054B   26062.52157995 -.00000255  00000+0  00000+0 0  9990
2 40147   0.0402  37.2951 0003626 343.2968  59.9520  1.00268239 41841
HIMAWARI-8              
1 40267U 14060A   26062.75694163 -.00000290  00000+0  00000+0 0  9997
2 40267   0.0349 253.5628 0000792  70.7847 250.3122  1.00272040 41702
IRNSS-1C                
1 40269U 14061A   26062.66187685 -.00000172  00000+0  00000+0 0  9995
2 40269   6.2467  90.9894 0019809 356.5662  35.1298  1.00269944 41634
INTELSAT 30 (IS-30)     
1 40271U 14062A   26062.56766063 -.00000165  00000+0  00000+0 0  9993
2 40271   0.0137  82.8937 0001162  26.6195 161.1234  1.00271059  5731
ARSAT 1                 
1 40272U 14062B   26062.78623512  .00000000  00000+0  00000+0 0  9996
2 40272   0.0205 117.3856 0001488 221.9276  33.4836  1.00267804 41566
EUTELSAT 53A            
1 40277U 14064A   26062.16912700  .00000082  00000+0  00000+0 0  9995
2 40277   0.0202 239.3678 0001354 138.1994 257.2357  1.00272520 40501
GSAT-16                 
1 40332U 14078A   26062.76433963  .00000071  00000+0  00000+0 0  9995
2 40332   0.0372 268.0173 0004569 167.9622  55.7780  1.00272551 41055
DIRECTV 14              
1 40333U 14078B   26062.56679395 -.00000140  00000+0  00000+0 0  9993
2 40333   0.0210 118.6380 0000429  40.9367 106.5486  1.00272482 40986
YAMAL 401               
1 40345U 14082A   26062.39038817 -.00000242  00000+0  00000+0 0  9993
2 40345   0.0085 137.7990 0000284  29.1062 224.6940  1.00269603 40852
ASTRA 2G                
1 40364U 14089A   26062.80599522  .00000000  00000+0  00000+0 0  9993
2 40364   0.0224   7.0985 0004368  20.7958  92.0204  1.00270425 40910
FENGYUN 2G              
1 40367U 14090A   26062.60497286 -.00000314  00000+0  00000+0 0  9999
2 40367   5.3719  74.0954 0001966 153.5378 251.1881  1.00274754 40943
MUOS-3                  
1 40374U 15002A   26062.79732852 -.00000140  00000+0  00000+0 0  9999
2 40374   4.3179  42.9778 0053296 183.9708 206.1461  1.00273232 40534
INMARSAT 5-F2           
1 40384U 15005A   26062.50430009 -.00000300  00000+0  00000+0 0  9999
2 40384   0.0210 127.4668 0000597 116.6237  43.6720  1.00270452 39932
ABS-3A                  
1 40424U 15010A   26062.58577405 -.00000041  00000+0  00000+0 0  9992
2 40424   0.0123 145.6825 0001742 140.4202  83.1451  1.00271189 40319
EUTELSAT 115 WEST B     
1 40425U 15010B   26062.43794888 -.00000040  00000+0  00000+0 0  9992
2 40425   0.0337  21.0877 0000243  73.0999 109.7578  1.00271220 40333
EXPRESS-AM7             
1 40505U 15012A   26062.80833522  .00000137  00000+0  00000+0 0  9999
2 40505   0.0162 223.3146 0003009 106.5788 162.6687  1.00275210 39953
BEIDOU-3S IGSO-1S       
1 40549U 15019A   26062.60351340 -.00000161  00000+0  00000+0 0  9993
2 40549  49.3919 296.7335 0035838 190.4162 347.9683  1.00273864 40010
